[{"OBJECT_NAME":"TEVEL2-2","OBJECT_ID":"2025-052K","EPOCH":"2026-03-09T15:33:48.895776","MEAN_MOTION":15.30343745,"ECCENTRICITY":0.0004693,"INCLINATION":97.3987,"RA_OF_ASC_NODE":324.77,"ARG_OF_PERICENTER":105.793,"MEAN_ANOMALY":254.3828,"EPHEMERIS_TYPE":0,"CLASSIFICATION_TYPE":"U","NORAD_CAT_ID":63219,"ELEMENT_SET_NO":999,"REV_AT_EPOCH":5485,"BSTAR":0.00069428,"MEAN_MOTION_DOT":0.00020339,"MEAN_MOTION_DDOT":0},{"OBJECT_NAME":"STARLINK-35546","OBJECT_ID":"2025-245G","EPOCH":"2026-03-09T21:54:52.755840","MEAN_MOTION":15.30209336,"ECCENTRICITY":0.00010519,"INCLINATION":53.1595,"RA_OF_ASC_NODE":282.6512,"ARG_OF_PERICENTER":90.5564,"MEAN_ANOMALY":269.5557,"EPHEMERIS_TYPE":0,"CLASSIFICATION_TYPE":"U","NORAD_CAT_ID":66240,"ELEMENT_SET_NO":999,"REV_AT_EPOCH":2129,"BSTAR":0.00091944327,"MEAN_MOTION_DOT":0.00026979,"MEAN_MOTION_DDOT":0}]
