TEVEL2-2                
1 63219U 25052K   26068.64848259  .00020339  00000+0  69428-3 0  9991
2 63219  97.3987 324.7700 0004693 105.7930 254.3828 15.30343745 54855
STARLINK-35546          
1 66240U 25245G   26068.91311060  .00026979  00000+0  91944-3 0  9991
2 66240  53.1595 282.6512 0001052  90.5564 269.5557 15.30209336 21296
